{
  "type": "FeatureCollection",
  "features": [
    {
      "type": "Feature",
      "properties": {
        "norad_id": 37781,
        "name": "HAIYANG-2A",
        "group": "resource",
        "lat": -75.66948205929897,
        "lon": 128.52141535193678,
        "alt_km": 976.5137120144273,
        "timestamp": "2025-12-13T16:48:32.370226+00:00",
        "meta_object_name": "HAIYANG-2A",
        "meta_object_id": "2011-043A",
        "meta_epoch": "2025-12-12T23:52:57.643104",
        "meta_mean_motion": 13.78834734,
        "meta_eccentricity": 0.00016494,
        "meta_inclination": 99.3384,
        "meta_ra_of_asc_node": 347.9255,
        "meta_arg_of_pericenter": 82.4875,
        "meta_mean_anomaly": 277.6464,
        "meta_ephemeris_type": 0,
        "meta_classification_type": "U",
        "meta_norad_cat_id": 37781,
        "meta_element_set_no": 999,
        "meta_rev_at_epoch": 72102,
        "meta_bstar": -6.4391049e-05,
        "meta_mean_motion_dot": -1.1e-06,
        "meta_mean_motion_ddot": 0,
        "tle_line1": "1 37781U 11043A   25346.99511161 -.00000110  00000+0 -64391-4 0  9998",
        "tle_line2": "2 37781  99.3384 347.9255 0001649  82.4875 277.6464 13.78834734721029"
      },
      "geometry": {
        "type": "Point",
        "coordinates": [
          128.52141535193678,
          -75.66948205929897
        ]
      }
    },
    {
      "type": "Feature",
      "properties": {
        "norad_id": 37791,
        "name": "RASAT",
        "group": "resource",
        "lat": -36.64968716286705,
        "lon": 82.9984943311461,
        "alt_km": 676.493558191225,
        "timestamp": "2025-12-13T16:48:32.370236+00:00",
        "meta_object_name": "RASAT",
        "meta_object_id": "2011-044D",
        "meta_epoch": "2025-12-13T01:10:59.253024",
        "meta_mean_motion": 14.67911167,
        "meta_eccentricity": 0.0021913,
        "meta_inclination": 98.0645,
        "meta_ra_of_asc_node": 76.3019,
        "meta_arg_of_pericenter": 64.1488,
        "meta_mean_anomaly": 60.5782,
        "meta_ephemeris_type": 0,
        "meta_classification_type": "U",
        "meta_norad_cat_id": 37791,
        "meta_element_set_no": 999,
        "meta_rev_at_epoch": 76587,
        "meta_bstar": 0.0002249344,
        "meta_mean_motion_dot": 1.242e-05,
        "meta_mean_motion_ddot": 0,
        "tle_line1": "1 37791U 11044D   25347.04929691  .00001242  00000+0  22493-3 0  9999",
        "tle_line2": "2 37791  98.0645  76.3019 0021913  64.1488  60.5782 14.67911167765878"
      },
      "geometry": {
        "type": "Point",
        "coordinates": [
          82.9984943311461,
          -36.64968716286705
        ]
      }
    },
    {
      "type": "Feature",
      "properties": {
        "norad_id": 37841,
        "name": "SRMSAT",
        "group": "resource",
        "lat": -19.121977711313445,
        "lon": 29.454385552249153,
        "alt_km": 847.264553918927,
        "timestamp": "2025-12-13T16:48:32.370246+00:00",
        "meta_object_name": "SRMSAT",
        "meta_object_id": "2011-058D",
        "meta_epoch": "2025-12-13T00:55:22.594944",
        "meta_mean_motion": 14.11511594,
        "meta_eccentricity": 0.00117679,
        "meta_inclination": 19.971,
        "meta_ra_of_asc_node": 106.1426,
        "meta_arg_of_pericenter": 316.7615,
        "meta_mean_anomaly": 198.8861,
        "meta_ephemeris_type": 0,
        "meta_classification_type": "U",
        "meta_norad_cat_id": 37841,
        "meta_element_set_no": 999,
        "meta_rev_at_epoch": 73148,
        "meta_bstar": 0.00013117397,
        "meta_mean_motion_dot": 5.06e-06,
        "meta_mean_motion_ddot": 0,
        "tle_line1": "1 37841U 11058D   25347.03845596  .00000506  00000+0  13117-3 0  9995",
        "tle_line2": "2 37841  19.9710 106.1426 0011767 316.7615 198.8861 14.11511594731489"
      },
      "geometry": {
        "type": "Point",
        "coordinates": [
          29.454385552249153,
          -19.121977711313445
        ]
      }
    },
    {
      "type": "Feature",
      "properties": {
        "norad_id": 38012,
        "name": "PLEIADES 1A",
        "group": "resource",
        "lat": 80.94863577165405,
        "lon": -4.119960515182888,
        "alt_km": 689.4716742733935,
        "timestamp": "2025-12-13T16:48:32.370257+00:00",
        "meta_object_name": "PLEIADES 1A",
        "meta_object_id": "2011-076F",
        "meta_epoch": "2025-12-13T00:30:43.254144",
        "meta_mean_motion": 14.58562174,
        "meta_eccentricity": 0.00013252,
        "meta_inclination": 98.1818,
        "meta_ra_of_asc_node": 59.7851,
        "meta_arg_of_pericenter": 74.2426,
        "meta_mean_anomaly": 48.477,
        "meta_ephemeris_type": 0,
        "meta_classification_type": "U",
        "meta_norad_cat_id": 38012,
        "meta_element_set_no": 999,
        "meta_rev_at_epoch": 74485,
        "meta_bstar": 0.00017948983,
        "meta_mean_motion_dot": 7.89e-06,
        "meta_mean_motion_ddot": 0,
        "tle_line1": "1 38012U 11076F   25347.02133396  .00000789  00000+0  17949-3 0  9993",
        "tle_line2": "2 38012  98.1818  59.7851 0001325  74.2426  48.4770 14.58562174744853"
      },
      "geometry": {
        "type": "Point",
        "coordinates": [
          -4.119960515182888,
          80.94863577165405
        ]
      }
    },
    {
      "type": "Feature",
      "properties": {
        "norad_id": 38038,
        "name": "ZIYUAN 1-02C (ZY 1-02C)",
        "group": "resource",
        "lat": -74.54886476900882,
        "lon": 86.15527333489318,
        "alt_km": 776.7078498512274,
        "timestamp": "2025-12-13T16:48:32.370267+00:00",
        "meta_object_name": "ZIYUAN 1-02C (ZY 1-02C)",
        "meta_object_id": "2011-079A",
        "meta_epoch": "2025-12-13T01:00:51.257088",
        "meta_mean_motion": 14.38013046,
        "meta_eccentricity": 0.00072061,
        "meta_inclination": 98.4328,
        "meta_ra_of_asc_node": 53.0499,
        "meta_arg_of_pericenter": 137.541,
        "meta_mean_anomaly": 340.4418,
        "meta_ephemeris_type": 0,
        "meta_classification_type": "U",
        "meta_norad_cat_id": 38038,
        "meta_element_set_no": 999,
        "meta_rev_at_epoch": 73245,
        "meta_bstar": 0.00032214145,
        "meta_mean_motion_dot": 9.32e-06,
        "meta_mean_motion_ddot": 0,
        "tle_line1": "1 38038U 11079A   25347.04225992  .00000932  00000+0  32214-3 0  9992",
        "tle_line2": "2 38038  98.4328  53.0499 0007206 137.5410 340.4418 14.38013046732459"
      },
      "geometry": {
        "type": "Point",
        "coordinates": [
          86.15527333489318,
          -74.54886476900882
        ]
      }
    },
    {
      "type": "Feature",
      "properties": {
        "norad_id": 38046,
        "name": "ZIYUAN 3-1 (ZY 3-1)",
        "group": "resource",
        "lat": 10.377734533821588,
        "lon": -124.53781938244875,
        "alt_km": 365.3368655301665,
        "timestamp": "2025-12-13T16:48:32.370277+00:00",
        "meta_object_name": "ZIYUAN 3-1 (ZY 3-1)",
        "meta_object_id": "2012-001A",
        "meta_epoch": "2025-12-13T00:46:46.126848",
        "meta_mean_motion": 15.68632332,
        "meta_eccentricity": 0.00017419,
        "meta_inclination": 97.1753,
        "meta_ra_of_asc_node": 53.4564,
        "meta_arg_of_pericenter": 351.2292,
        "meta_mean_anomaly": 8.8939,
        "meta_ephemeris_type": 0,
        "meta_classification_type": "U",
        "meta_norad_cat_id": 38046,
        "meta_element_set_no": 999,
        "meta_rev_at_epoch": 77501,
        "meta_bstar": 0.0008821512,
        "meta_mean_motion_dot": 0.00100992,
        "meta_mean_motion_ddot": 0,
        "tle_line1": "1 38046U 12001A   25347.03247832  .00100992  00000+0  88215-3 0  9992",
        "tle_line2": "2 38046  97.1753  53.4564 0001741 351.2292   8.8939 15.68632332775015"
      },
      "geometry": {
        "type": "Point",
        "coordinates": [
          -124.53781938244875,
          10.377734533821588
        ]
      }
    },
    {
      "type": "Feature",
      "properties": {
        "norad_id": 38338,
        "name": "ARIRANG-3 (KOMPSAT-3)",
        "group": "resource",
        "lat": -5.599826469365954,
        "lon": -56.8797241704815,
        "alt_km": 687.7488185454158,
        "timestamp": "2025-12-13T16:48:32.370288+00:00",
        "meta_object_name": "ARIRANG-3 (KOMPSAT-3)",
        "meta_object_id": "2012-025B",
        "meta_epoch": "2025-12-13T00:24:21.583872",
        "meta_mean_motion": 14.61713357,
        "meta_eccentricity": 0.00053454,
        "meta_inclination": 98.3322,
        "meta_ra_of_asc_node": 301.6084,
        "meta_arg_of_pericenter": 337.8639,
        "meta_mean_anomaly": 22.233,
        "meta_ephemeris_type": 0,
        "meta_classification_type": "U",
        "meta_norad_cat_id": 38338,
        "meta_element_set_no": 999,
        "meta_rev_at_epoch": 72414,
        "meta_bstar": 0.00019881245,
        "meta_mean_motion_dot": 9.42e-06,
        "meta_mean_motion_ddot": 0,
        "tle_line1": "1 38338U 12025B   25347.01691648  .00000942  00000+0  19881-3 0  9995",
        "tle_line2": "2 38338  98.3322 301.6084 0005345 337.8639  22.2330 14.61713357724140"
      },
      "geometry": {
        "type": "Point",
        "coordinates": [
          -56.8797241704815,
          -5.599826469365954
        ]
      }
    }
  ]
}